NORAD_CAT_ID,OBJECT_NAME,OBJECT_TYPE,EPOCH,MEAN_MOTION,ECCENTRICITY,INCLINATION,RA_OF_ASC_NODE,ARG_OF_PERICENTER,MEAN_ANOMALY,BSTAR,MEAN_MOTION_DOT,MEAN_MOTION_DDOT,TLE_LINE0,TLE_LINE1,TLE_LINE2,SEMIMAJOR_AXIS,PERIOD,APOGEE,PERIGEE,DECAYED
53988.0,STARLINK-5113,PAYLOAD,2024-05-17 04:02:14,15.08829487,0.0001822,53.2152,303.919,74.2892,285.8301,0.00042021,6.404e-05,0.0,0 STARLINK-5113,1 53988U 22125AA  24138.16822515  .00006404  00000-0  42021-3 0  9999,2 53988  53.2152 303.9190 0001822  74.2892 285.8301 15.08829487 89582,6917.913,95.438,541.038,538.517,0.0
53988.0,STARLINK-5113,PAYLOAD,2024-05-18 03:53:01,15.08854452,0.0001782,53.2179,299.457,86.8639,273.2557,0.00056723,8.754e-05,0.0,0 STARLINK-5113,1 53988U 22125AA  24139.16181943  .00008754  00000-0  56723-3 0  9997,2 53988  53.2179 299.4570 0001782  86.8639 273.2557 15.08854452 89815,6917.836,95.437,540.934,538.468,0.0
53988.0,STARLINK-5113,PAYLOAD,2024-05-18 11:49:56,15.08864196,0.0001511,53.2165,297.9708,92.3674,267.7491,0.0006261,9.697e-05,0.0,0 STARLINK-5113,1 53988U 22125AA  24139.49301303  .00009697  00000-0  62610-3 0  9996,2 53988  53.2165 297.9708 0001511  92.3674 267.7491 15.08864196 89784,6917.806,95.436,540.717,538.626,0.0
53988.0,STARLINK-5113,PAYLOAD,2024-05-18 18:11:28,15.08892976,0.0001633,53.216,296.7834,92.2644,267.8535,0.0012827,0.00020215,0.0,0 STARLINK-5113,1 53988U 22125AA  24139.75796486  .00020215  00000-0  12827-2 0  9998,2 53988  53.2160 296.7834 0001633  92.2644 267.8535 15.08892976 89908,6917.718,95.434,540.713,538.454,0.0
53988.0,STARLINK-5113,PAYLOAD,2024-05-19 03:43:47,15.08854354,0.000225,53.2155,295.0002,76.7,283.4242,-0.00017819,-3.124e-05,0.0,0 STARLINK-5113,1 53988U 22125AA  24140.15540855 -.00003124  00000-0 -17819-3 0  9990,2 53988  53.2155 295.0002 0002250  76.7000 283.4242 15.08854354 89963,6917.837,95.437,541.258,538.145,0.0
53988.0,STARLINK-5113,PAYLOAD,2024-05-19 19:37:39,15.08831224,0.0001613,53.2173,292.0222,83.2112,276.9064,0.00030165,4.515e-05,0.0,0 STARLINK-5113,1 53988U 22125AA  24140.81781566  .00004515  00000-0  30165-3 0  9991,2 53988  53.2173 292.0222 0001613  83.2112 276.9064 15.08831224 90066,6917.907,95.438,540.888,538.656,0.0
53988.0,STARLINK-5113,PAYLOAD,2024-05-20 14:42:17,15.08854803,0.0001574,53.2171,288.454,75.4884,284.6282,0.0013504,0.00021278,0.0,0 STARLINK-5113,1 53988U 22125AA  24141.61269849  .00021278  00000-0  13504-2 0  9997,2 53988  53.2171 288.4540 0001574  75.4884 284.6282 15.08854803 90102,6917.835,95.437,540.789,538.611,0.0
53988.0,STARLINK-5113,PAYLOAD,2024-05-20 19:28:26,15.08864765,0.0001658,53.2172,287.5629,71.546,288.5712,0.0014293,0.00022548,0.0,0 STARLINK-5113,1 53988U 22125AA  24141.81141582  .00022548  00000-0  14293-2 0  9999,2 53988  53.2172 287.5629 0001658  71.5460 288.5712 15.08864765 90212,6917.805,95.436,540.817,538.523,0.0
53988.0,STARLINK-5113,PAYLOAD,2024-05-21 12:57:40,15.08850663,0.000217,53.2149,284.2864,124.4355,235.6843,0.0008684,0.00013564,0.0,0 STARLINK-5113,1 53988U 22125AA  24142.54005291  .00013564  00000-0  86840-3 0  9992,2 53988  53.2149 284.2864 0002170 124.4355 235.6843 15.08850663 90324,6917.848,95.437,541.214,538.212,0.0
53988.0,STARLINK-5113,PAYLOAD,2024-05-21 14:33:03,15.08856727,0.0001416,53.2176,283.9926,95.4234,264.6919,0.00062511,9.679e-05,0.0,0 STARLINK-5113,1 53988U 22125AA  24142.60629314  .00009679  00000-0  62511-3 0  9998,2 53988  53.2176 283.9926 0001416  95.4234 264.6919 15.08856727 90259,6917.829,95.436,540.674,538.715,0.0
53988.0,STARLINK-5113,PAYLOAD,2024-05-21 16:08:26,15.08857152,0.0001332,53.2175,283.6954,74.0762,286.0377,0.00071402,0.00011099,0.0,0 STARLINK-5113,1 53988U 22125AA  24142.67253371  .00011099  00000-0  71402-3 0  9999,2 53988  53.2175 283.6954 0001332  74.0762 286.0377 15.08857152 90262,6917.828,95.436,540.614,538.772,0.0
53988.0,STARLINK-5113,PAYLOAD,2024-05-22 09:37:41,15.08840401,0.0001217,53.2165,280.428,88.7163,271.3969,0.00080671,0.00012574,0.0,0 STARLINK-5113,1 53988U 22125AA  24143.40117666  .00012574  00000-0  80671-3 0  9994,2 53988  53.2165 280.4280 0001217  88.7163 271.3969 15.08840401 90451,6917.879,95.438,540.586,538.902,0.0
53988.0,STARLINK-5113,PAYLOAD,2024-05-23 12:39:15,15.08845982,0.000127,53.2176,275.3767,82.2171,277.8965,0.00036923,5.594e-05,0.0,0 STARLINK-5113,1 53988U 22125AA  24144.52725809  .00005594  00000-0  36923-3 0  9997,2 53988  53.2176 275.3767 0001270  82.2171 277.8965 15.08845982 90628,6917.862,95.437,540.606,538.849,0.0
53988.0,STARLINK-5113,PAYLOAD,2024-05-23 14:14:38,15.0884609,0.0001359,53.2176,275.0787,91.1379,268.9769,0.00031449,4.722e-05,0.0,0 STARLINK-5113,1 53988U 22125AA  24144.59349725  .00004722  00000-0  31449-3 0  9993,2 53988  53.2176 275.0787 0001359  91.1379 268.9769 15.08846090 90550,6917.862,95.437,540.667,538.787,0.0
53988.0,STARLINK-5113,PAYLOAD,2024-05-24 14:05:24,15.08853784,0.000162,53.217,270.6166,111.9471,248.1693,0.0002545,3.766e-05,0.0,0 STARLINK-5113,1 53988U 22125AA  24145.58709011  .00003766  00000-0  25450-3 0  9993,2 53988  53.2170 270.6166 0001620 111.9471 248.1693 15.08853784 90702,6917.838,95.437,540.824,538.583,0.0
53988.0,STARLINK-5113,PAYLOAD,2024-05-24 18:51:33,15.08870524,0.0001529,53.2171,269.7238,102.887,257.2293,0.00084545,0.00013204,0.0,0 STARLINK-5113,1 53988U 22125AA  24145.78580673  .00013204  00000-0  84545-3 0  9994,2 53988  53.2171 269.7238 0001529 102.8870 257.2293 15.08870524 90812,6917.787,95.436,540.71,538.594,0.0
53988.0,STARLINK-5113,PAYLOAD,2024-05-25 01:13:06,15.08784451,1.78e-05,53.2151,268.5271,258.3633,101.7339,-0.0028503,-0.00045294,0.0,0 STARLINK-5113,1 53988U 22125AA  24146.05077203 -.00045294  00000-0 -28503-2 0  9992,2 53988  53.2151 268.5271 0000178 258.3633 101.7339 15.08784451 90858,6918.05,95.441,540.038,539.792,0.0
53988.0,STARLINK-5113,PAYLOAD,2024-05-25 12:20:49,15.0881296,0.0001886,53.2154,266.4484,41.3089,318.8046,-0.00084594,-0.00013716,0.0,0 STARLINK-5113,1 53988U 22125AA  24146.51445873 -.00013716  00000-0 -84594-3 0  9992,2 53988  53.2154 266.4484 0001886  41.3089 318.8046 15.08812960 90927,6917.963,95.439,541.133,538.523,0.0
53988.0,STARLINK-5113,PAYLOAD,2024-05-25 13:56:12,15.08829842,0.0001127,53.2154,266.1484,48.0749,312.0339,2.6797e-05,1.39e-06,0.0,0 STARLINK-5113,1 53988U 22125AA  24146.58069482  .00000139  00000-0  26797-4 0  9992,2 53988  53.2154 266.1484 0001127  48.0749 312.0339 15.08829842 90859,6917.911,95.438,540.556,538.997,0.0
53988.0,STARLINK-5113,PAYLOAD,2024-05-25 17:06:58,15.08832279,0.0001089,53.216,265.5612,92.3607,267.751,7.7481e-05,9.45e-06,0.0,0 STARLINK-5113,1 53988U 22125AA  24146.71317619  .00000945  00000-0  77481-4 0  9996,2 53988  53.2160 265.5612 0001089  92.3607 267.7510 15.08832279 90950,6917.904,95.438,540.522,539.016,0.0
53988.0,STARLINK-5113,PAYLOAD,2024-05-26 12:11:35,15.08891591,7.41e-05,53.2154,261.9935,78.1909,281.9166,0.0020567,0.00032643,0.0,0 STARLINK-5113,1 53988U 22125AA  24147.50804750  .00032643  00000-0  20567-2 0  9992,2 53988  53.2154 261.9935 0000741  78.1909 281.9166 15.08891591 91073,6917.723,95.434,540.1,539.075,0.0
53988.0,STARLINK-5113,PAYLOAD,2024-05-26 13:46:59,15.08852514,0.0001062,53.2154,261.6968,64.8352,295.2751,0.00088662,0.00013856,0.0,0 STARLINK-5113,1 53988U 22125AA  24147.57429758  .00013856  00000-0  88662-3 0  9996,2 53988  53.2154 261.6968 0001062  64.8352 295.2751 15.08852514 91000,6917.842,95.437,540.442,538.972,0.0
53988.0,STARLINK-5113,PAYLOAD,2024-05-27 00:54:41,15.08848844,0.0001177,53.2153,259.6156,74.3708,285.7414,0.00045537,6.968e-05,0.0,0 STARLINK-5113,1 53988U 22125AA  24148.03797841  .00006968  00000-0  45537-3 0  9999,2 53988  53.2153 259.6156 0001177  74.3708 285.7414 15.08848844 91150,6917.853,95.437,540.533,538.904,0.0
53988.0,STARLINK-5113,PAYLOAD,2024-05-27 13:37:46,15.08866464,0.0001258,53.2162,257.2381,76.7247,283.3885,0.00077815,0.00012127,0.0,0 STARLINK-5113,1 53988U 22125AA  24148.56789376  .00012127  00000-0  77815-3 0  9999,2 53988  53.2162 257.2381 0001258  76.7247 283.3885 15.08866464 91152,6917.8,95.436,540.535,538.794,0.0
53988.0,STARLINK-5113,PAYLOAD,2024-05-28 13:28:33,15.08849695,0.0001367,53.2169,252.7762,82.5655,277.5493,0.00023891,3.517e-05,0.0,0 STARLINK-5113,1 53988U 22125AA  24149.56149650  .00003517  00000-0  23891-3 0  9993,2 53988  53.2169 252.7762 0001367  82.5655 277.5493 15.08849695 91305,6917.851,95.437,540.661,538.77,0.0
53988.0,STARLINK-5113,PAYLOAD,2024-05-29 11:43:57,15.08841669,0.0001451,53.2176,248.614,84.1387,275.9771,6.9871e-05,8.24e-06,0.0,0 STARLINK-5113,1 53988U 22125AA  24150.48885835  .00000824  00000-0  69871-4 0  9995,2 53988  53.2176 248.6140 0001451  84.1387 275.9771 15.08841669 91529,6917.875,95.437,540.744,538.737,0.0
53988.0,STARLINK-5113,PAYLOAD,2024-05-29 13:19:20,15.08842192,0.0001434,53.2176,248.3164,81.5974,278.5181,8.1601e-05,1.011e-05,0.0,0 STARLINK-5113,1 53988U 22125AA  24150.55509849  .00001011  00000-0  81601-4 0  9995,2 53988  53.2176 248.3164 0001434  81.5974 278.5181 15.08842192 91454,6917.874,95.437,540.731,538.747,0.0
53988.0,STARLINK-5113,PAYLOAD,2024-05-30 13:10:07,15.08844386,0.0001397,53.2187,243.857,94.5179,265.5972,0.00013765,1.904e-05,0.0,0 STARLINK-5113,1 53988U 22125AA  24151.54869726  .00001904  00000-0  13765-3 0  9994,2 53988  53.2187 243.8570 0001397  94.5179 265.5972 15.08844386 91604,6917.867,95.437,540.698,538.766,0.0
53988.0,STARLINK-5113,PAYLOAD,2024-05-30 13:10:08,15.08823227,0.0001555,53.2176,243.8578,98.4586,261.6582,0.00071057,0.00011034,0.0,0 STARLINK-5113,1 53988U 22125AA  24151.54870885  .00011034  00000-0  71057-3 0  9995,2 53988  53.2176 243.8578 0001555  98.4586 261.6582 15.08823227 91684,6917.932,95.439,540.872,538.721,0.0
53988.0,STARLINK-5113,PAYLOAD,2024-05-31 13:00:54,15.08845142,0.0001398,53.2187,239.3973,99.4354,260.6797,0.00013187,1.812e-05,0.0,0 STARLINK-5113,1 53988U 22125AA  24152.54229745  .00001812  00000-0  13187-3 0  9992,2 53988  53.2187 239.3973 0001398  99.4354 260.6797 15.08845142 91759,6917.865,95.437,540.697,538.763,0.0
